NORAD_CAT_ID,OBJECT_NAME,OBJECT_TYPE,EPOCH,MEAN_MOTION,ECCENTRICITY,INCLINATION,RA_OF_ASC_NODE,ARG_OF_PERICENTER,MEAN_ANOMALY,BSTAR,MEAN_MOTION_DOT,MEAN_MOTION_DDOT,TLE_LINE0,TLE_LINE1,TLE_LINE2,SEMIMAJOR_AXIS,PERIOD,APOGEE,PERIGEE,DECAYED
50165.0,STARLINK-3298,PAYLOAD,2022-03-16 20:00:01,15.08851175,0.0001985,53.2198,305.7284,44.6101,204.9334,-0.001283,-0.00020656,0.0,0 STARLINK-3298,1 50165U 21125K   22075.83334491 -.00020656  00000-0 -12830-2 0  9996,2 50165  53.2198 305.7284 0001985  44.6101 204.9334 15.08851175  3587,6917.846,95.437,541.0840000000002,538.3380000000002,0.0
50165.0,STARLINK-3298,PAYLOAD,2022-03-17 06:00:00,15.08864527,0.0002015,53.2194,303.8579,42.7111,311.3284,-0.0018284,-0.00029289,0.0,0 STARLINK-3298,1 50165U 21125K   22076.25001157 -.00029289  00000-0 -18284-2 0  9993,2 50165  53.2194 303.8579 0002015  42.7111 311.3284 15.08864527 13958,6917.805,95.436,541.064,538.276,0.0
50165.0,STARLINK-3298,PAYLOAD,2022-03-17 14:00:01,15.08840275,0.000188,53.2195,302.3604,48.9773,316.6779,0.0025125,0.00039926,0.0,0 STARLINK-3298,1 50165U 21125K   22076.58334491  .00039926  00000-0  25125-2 0  9998,2 50165  53.2195 302.3604 0001880  48.9773 316.6779 15.08840275  3605,6917.88,95.438,541.045,538.444,0.0
50165.0,STARLINK-3298,PAYLOAD,2022-03-17 22:00:00,15.08862278,0.0002069,53.2191,300.8661,44.8761,332.3927,-0.00038353,-6.391e-05,0.0,0 STARLINK-3298,1 50165U 21125K   22076.91667824 -.00006391  00000-0 -38353-3 0  9994,2 50165  53.2191 300.8661 0002069  44.8761 332.3927 15.08862278  3606,6917.812,95.436,541.109,538.246,0.0
50165.0,STARLINK-3298,PAYLOAD,2022-03-18 08:00:01,15.08877282,0.0001891,53.219,298.9941,46.0315,75.757,-0.0037913,-0.00060185,0.0,0 STARLINK-3298,1 50165U 21125K   22077.33334491 -.00060185  00000-0 -37913-2 0  9993,2 50165  53.2190 298.9941 0001891  46.0315  75.7570 15.08877282 14115,6917.766,95.435,540.94,538.323,0.0
50165.0,STARLINK-3298,PAYLOAD,2022-03-18 14:00:01,15.08829518,0.0001798,53.219,297.8713,48.8112,351.6951,0.0020376,0.0003228,0.0,0 STARLINK-3298,1 50165U 21125K   22077.58334491  .00032280  00000-0  20376-2 0  9998,2 50165  53.2190 297.8713 0001798  48.8112 351.6951 15.08829518  3601,6917.9119999999975,95.438,541.021,538.534,0.0
50165.0,STARLINK-3298,PAYLOAD,2022-03-18 22:00:00,15.08843931,0.0002004,53.2186,296.3772,44.642,7.4618,-0.00023367,-4.006e-05,0.0,0 STARLINK-3298,1 50165U 21125K   22077.91667824 -.00004006  00000-0 -23367-3 0  9995,2 50165  53.2186 296.3772 0002004  44.6420   7.4618 15.08843931 14201,6917.868,95.437,541.12,538.347,0.0
50165.0,STARLINK-3298,PAYLOAD,2022-03-19 14:00:01,15.08844492,0.0001839,53.2183,293.3821,51.2348,24.0675,0.0015074,0.00023787,0.0,0 STARLINK-3298,1 50165U 21125K   22078.58334491  .00023787  00000-0  15074-2 0  9990,2 50165  53.2183 293.3821 0001839  51.2348  24.0675 15.08844492  3599,6917.8669999999975,95.437,541.004,538.4590000000002,0.0
50165.0,STARLINK-3298,PAYLOAD,2022-03-19 22:00:01,15.08854137,0.0002006,53.2182,291.8875,46.1558,40.8185,-0.00087862,-0.0001425,0.0,0 STARLINK-3298,1 50165U 21125K   22078.91668981 -.00014250  00000-0 -87862-3 0  9993,2 50165  53.2182 291.8875 0002006  46.1558  40.8185 15.08854137 14358,6917.837,95.437,541.09,538.314,0.0
50165.0,STARLINK-3298,PAYLOAD,2022-03-20 14:00:01,15.08832125,0.0001815,53.218,288.8928,50.6492,59.4634,0.0010454,0.00016385,0.0,0 STARLINK-3298,1 50165U 21125K   22079.58334491  .00016385  00000-0  10454-2 0  9994,2 50165  53.2180 288.8928 0001815  50.6492  59.4634 15.08832125  3597,6917.904,95.438,541.025,538.514,0.0
50165.0,STARLINK-3298,PAYLOAD,2022-03-20 22:00:01,15.08831288,0.0002002,53.218,287.3982,45.4162,76.3564,0.00070043,0.00010874,0.0,0 STARLINK-3298,1 50165U 21125K   22079.91668981  .00010874  00000-0  70043-3 0  9993,2 50165  53.2180 287.3982 0002002  45.4162  76.3564 15.08831288  3607,6917.906999999997,95.438,541.1569999999998,538.387,0.0
50165.0,STARLINK-3298,PAYLOAD,2022-03-21 06:00:00,15.08858078,0.000194,53.2179,285.9007,46.4755,86.8219,-0.0018045,-0.00028907,0.0,0 STARLINK-3298,1 50165U 21125K   22080.25001157 -.00028907  00000-0 -18045-2 0  9999,2 50165  53.2179 285.9007 0001940  46.4755  86.8219 15.08858078 14551,6917.825,95.436,541.0319999999998,538.3480000000002,0.0
50165.0,STARLINK-3298,PAYLOAD,2022-03-21 14:00:01,15.08852197,0.0001963,53.2182,284.4035,52.7083,92.1899,-0.0018805,-0.00030102,0.0,0 STARLINK-3298,1 50165U 21125K   22080.58334491 -.00030102  00000-0 -18805-2 0  9999,2 50165  53.2182 284.4035 0001963  52.7083  92.1899 15.08852197  3591,6917.843000000003,95.437,541.066,538.35,0.0
50165.0,STARLINK-3298,PAYLOAD,2022-03-21 22:00:00,15.08813352,0.000218,53.2183,282.9089,48.14,108.3579,0.0012403,0.00019492,0.0,0 STARLINK-3298,1 50165U 21125K   22080.91667824  .00019492  00000-0  12403-2 0  9990,2 50165  53.2183 282.9089 0002180  48.1400 108.3579 15.08813352  3593,6917.962,95.439,541.335,538.319,0.0
50165.0,STARLINK-3298,PAYLOAD,2022-03-22 06:00:00,15.08842008,0.0002086,53.2184,281.4113,49.5648,118.5033,-0.0015504,-0.0002488,0.0,0 STARLINK-3298,1 50165U 21125K   22081.25001157 -.00024880  00000-0 -15504-2 0  9993,2 50165  53.2184 281.4113 0002086  49.5648 118.5033 15.08842008 14703,6917.874,95.437,541.182,538.2959999999998,0.0
50165.0,STARLINK-3298,PAYLOAD,2022-03-22 14:00:01,15.08840034,0.0002088,53.2187,279.9144,54.103,125.5478,0.00032774,4.932e-05,0.0,0 STARLINK-3298,1 50165U 21125K   22081.58334491  .00004932  00000-0  32774-3 0  9992,2 50165  53.2187 279.9144 0002088  54.1030 125.5478 15.08840034  3594,6917.88,95.438,541.19,538.3009999999998,0.0
50165.0,STARLINK-3298,PAYLOAD,2022-03-22 20:00:01,15.08840908,0.0002242,53.2186,278.7936,50.017,48.3311,-0.00070594,-0.00011506,0.0,0 STARLINK-3298,1 50165U 21125K   22081.83334491 -.00011506  00000-0 -70594-3 0  9999,2 50165  53.2186 278.7936 0002242  50.0170  48.3311 15.08840908 14793,6917.878000000002,95.437,541.294,538.192,0.0
50165.0,STARLINK-3298,PAYLOAD,2022-03-22 22:00:01,15.08823363,0.000227,53.2188,278.4198,48.7409,142.57299999999995,0.0017779,0.00028108,0.0,0 STARLINK-3298,1 50165U 21125K   22081.91668981  .00028108  00000-0  17779-2 0  9991,2 50165  53.2188 278.4198 0002270  48.7409 142.5730 15.08823363  3608,6917.931,95.439,541.367,538.226,0.0
50165.0,STARLINK-3298,PAYLOAD,2022-03-23 14:00:01,15.08864366,0.0002085,53.2193,275.4256,53.8311,160.6098,-0.0026425,-0.00042127,0.0,0 STARLINK-3298,1 50165U 21125K   22082.58334491 -.00042127  00000-0 -26425-2 0  9998,2 50165  53.2193 275.4256 0002085  53.8311 160.6098 15.08864366 14900,6917.806,95.436,541.113,538.229,0.0
50165.0,STARLINK-3298,PAYLOAD,2022-03-23 22:00:00,15.08810438,0.0002236,53.2193,273.9309,47.4989,178.5504,0.0022507,0.00035685,0.0,0 STARLINK-3298,1 50165U 21125K   22082.91667824  .00035685  00000-0  22507-2 0  9990,2 50165  53.2193 273.9309 0002236  47.4989 178.5504 15.08810438  3606,6917.971,95.439,541.383,538.289,0.0
50165.0,STARLINK-3298,PAYLOAD,2022-03-24 06:00:00,15.08841339,0.0002079,53.2193,272.4332,50.0893,187.5369,-0.00092779,-0.00015025,0.0,0 STARLINK-3298,1 50165U 21125K   22083.25001157 -.00015025  00000-0 -92779-3 0  9996,2 50165  53.2193 272.4332 0002079  50.0893 187.5369 15.08841339 15005,6917.876,95.437,541.18,538.303,0.0
50165.0,STARLINK-3298,PAYLOAD,2022-03-24 14:00:01,15.08850238,0.0002069,53.2195,270.9369,53.8712,195.3409,-0.00027505,-4.664e-05,0.0,0 STARLINK-3298,1 50165U 21125K   22083.58334491 -.00004664  00000-0 -27505-3 0  9994,2 50165  53.2195 270.9369 0002069  53.8712 195.3409 15.08850238  3580,6917.849,95.437,541.145,538.283,0.0
50165.0,STARLINK-3298,PAYLOAD,2022-03-24 22:00:00,15.08829337,0.0002223,53.2194,269.4422,48.1588,212.6634,0.0020229,0.00032044,0.0,0 STARLINK-3298,1 50165U 21125K   22083.91667824  .00032044  00000-0  20229-2 0  9996,2 50165  53.2194 269.4422 0002223  48.1588 212.6634 15.08829337  3604,6917.913000000001,95.438,541.316,538.24,0.0
50165.0,STARLINK-3298,PAYLOAD,2022-03-25 00:00:02,15.0884149,0.0002171,53.2191,269.068,46.7045,307.0764,0.00061881,9.574e-05,0.0,0 STARLINK-3298,1 50165U 21125K   22084.00002315  .00009574  00000-0  61881-3 0  9997,2 50165  53.2191 269.0680 0002171  46.7045 307.0764 15.08841490 15124,6917.876,95.437,541.243,538.239,0.0
50165.0,STARLINK-3298,PAYLOAD,2022-03-25 14:00:01,15.08843021,0.0001964,53.2193,266.4483,52.8532,231.1529,-0.00064017,-0.00010463,0.0,0 STARLINK-3298,1 50165U 21125K   22084.58334491 -.00010463  00000-0 -64017-3 0  9998,2 50165  53.2193 266.4483 0001964  52.8532 231.1529 15.08843021  3581,6917.871,95.437,541.095,538.377,0.0
50165.0,STARLINK-3298,PAYLOAD,2022-03-25 22:00:01,15.08814072,0.0002136,53.219,264.9536,47.6713,247.9953,0.0026783,0.00042565,0.0,0 STARLINK-3298,1 50165U 21125K   22084.91668981  .00042565  00000-0  26783-2 0  9992,2 50165  53.2190 264.9536 0002136  47.6713 247.9953 15.08814072 15252,6917.96,95.439,541.302,538.347,0.0
50165.0,STARLINK-3298,PAYLOAD,2022-03-26 14:00:01,15.08831378,0.0002051,53.2176,261.9587,49.3765,269.3593,0.00062461,9.664e-05,0.0,0 STARLINK-3298,1 50165U 21125K   22085.58334491  .00009664  00000-0  62461-3 0  9999,2 50165  53.2176 261.9587 0002051  49.3765 269.3593 15.08831378 15358,6917.906999999997,95.438,541.191,538.3530000000002,0.0
50165.0,STARLINK-3298,PAYLOAD,2022-03-26 22:00:00,15.08830159,0.0002068,53.2182,260.4649,47.6859,282.7094,0.00018824,2.708e-05,0.0,0 STARLINK-3298,1 50165U 21125K   22085.91667824  .00002708  00000-0  18824-3 0  9991,2 50165  53.2182 260.4649 0002068  47.6859 282.7094 15.08830159 15408,6917.91,95.438,541.206,538.345,0.0
50165.0,STARLINK-3298,PAYLOAD,2022-03-27 14:00:01,15.08852962,0.0001914,53.218,257.471,52.6846,300.8789,-0.001209,-0.00019485,0.0,0 STARLINK-3298,1 50165U 21125K   22086.58334491 -.00019485  00000-0 -12090-2 0  9996,2 50165  53.2180 257.4710 0001914  52.6846 300.8789 15.08852962  3600,6917.840999999999,95.437,541.03,538.382,0.0
